$$SOE
2460154.500000000, A.D. 2023-Jul-29 00:00:00.0000, 4.447951550853689E+09, 6.462388339986341E+09, -4.601116183447552E+07,
2460161.500000000, A.D. 2023-Aug-05 00:00:00.0000, 4.445866689743423E+09, 6.463448795679719E+09, -4.586879056081295E+07,
2460168.500000000, A.D. 2023-Aug-12 00:00:00.0000, 4.443781294434220E+09, 6.464508572914122E+09, -4.572641221445370E+07,
2460175.500000000, A.D. 2023-Aug-19 00:00:00.0000, 4.441695363088873E+09, 6.465567669051560E+09, -4.558402668975878E+07,
2460182.500000000, A.D. 2023-Aug-26 00:00:00.0000, 4.439608894175807E+09, 6.466626081055402E+09, -4.544163390521049E+07,
2460189.500000000, A.D. 2023-Sep-02 00:00:00.0000, 4.437521886446835E+09, 6.467683805509054E+09, -4.529923380199194E+07,
2460196.500000000, A.D. 2023-Sep-09 00:00:00.0000, 4.435434338928531E+09, 6.468740838522116E+09, -4.515682635393143E+07,
2460203.500000000, A.D. 2023-Sep-16 00:00:00.0000, 4.433346251095643E+09, 6.469797175465986E+09, -4.501441160893393E+07,
2460210.500000000, A.D. 2023-Sep-23 00:00:00.0000, 4.431257623642986E+09, 6.470852810825714E+09, -4.487198977659512E+07,
2460217.500000000, A.D. 2023-Sep-30 00:00:00.0000, 4.429168459516209E+09, 6.471907739358834E+09, -4.472956123344564E+07,
2460224.500000000, A.D. 2023-Oct-07 00:00:00.0000, 4.427078762847736E+09, 6.472961958018304E+09, -4.458712627416468E+07,
2460231.500000000, A.D. 2023-Oct-14 00:00:00.0000, 4.424988536837747E+09, 6.474015465326451E+09, -4.444468497473240E+07,
2460238.500000000, A.D. 2023-Oct-21 00:00:00.0000, 4.422897783808817E+09, 6.475068259802588E+09, -4.430223733250189E+07,
2460245.500000000, A.D. 2023-Oct-28 00:00:00.0000, 4.420806506009864E+09, 6.476120339704449E+09, -4.415978336761189E+07,
2460252.500000000, A.D. 2023-Nov-04 00:00:00.0000, 4.418714705919356E+09, 6.477171703313044E+09, -4.401732313377237E+07,
2460259.500000000, A.D. 2023-Nov-11 00:00:00.0000, 4.416622386225360E+09, 6.478222349161075E+09, -4.387485670348740E+07,
2460266.500000000, A.D. 2023-Nov-18 00:00:00.0000, 4.414529549701921E+09, 6.479272276140566E+09, -4.373238415284777E+07,
2460273.500000000, A.D. 2023-Nov-25 00:00:00.0000, 4.412436199054599E+09, 6.480321483512308E+09, -4.358990555049849E+07,
2460280.500000000, A.D. 2023-Dec-02 00:00:00.0000, 4.410342336763355E+09, 6.481369970805902E+09, -4.344742095410204E+07,
2460287.500000000, A.D. 2023-Dec-09 00:00:00.0000, 4.408247965000608E+09, 6.482417737551502E+09, -4.330493042615032E+07,
2460294.500000000, A.D. 2023-Dec-16 00:00:00.0000, 4.406153085912004E+09, 6.483464782855787E+09, -4.316243409441328E+07,
2460301.500000000, A.D. 2023-Dec-23 00:00:00.0000, 4.404057702608363E+09, 6.484511105509666E+09, -4.301993223287249E+07,
2460308.500000000, A.D. 2023-Dec-30 00:00:00.0000, 4.401961819528567E+09, 6.485556705676928E+09, -4.287742515456152E+07,
2460315.500000000, A.D. 2024-Jan-06 00:00:00.0000, 4.399865440400959E+09, 6.486601585803105E+09, -4.273491294682646E+07,
2460322.500000000, A.D. 2024-Jan-13 00:00:00.0000, 4.397768566975966E+09, 6.487645748937719E+09, -4.259239548794365E+07,
2460329.500000000, A.D. 2024-Jan-20 00:00:00.0000, 4.395671199753544E+09, 6.488689197554407E+09, -4.244987260544920E+07,
2460336.500000000, A.D. 2024-Jan-27 00:00:00.0000, 4.393573338676664E+09, 6.489731933521168E+09, -4.230734413708830E+07,
2460343.500000000, A.D. 2024-Feb-03 00:00:00.0000, 4.391474983362505E+09, 6.490773958272103E+09, -4.216480993281746E+07,
2460350.500000000, A.D. 2024-Feb-10 00:00:00.0000, 4.389376133148694E+09, 6.491815272889536E+09, -4.202226984733486E+07,
2460357.500000000, A.D. 2024-Feb-17 00:00:00.0000, 4.387276787093292E+09, 6.492855878104436E+09, -4.187972373537302E+07,
2460364.500000000, A.D. 2024-Feb-24 00:00:00.0000, 4.385176943964489E+09, 6.493895774229921E+09, -4.173717145198202E+07,
2460371.500000000, A.D. 2024-Mar-02 00:00:00.0000, 4.383076602249314E+09, 6.494934960995355E+09, -4.159461286327982E+07,
2460378.500000000, A.D. 2024-Mar-09 00:00:00.0000, 4.380975760320214E+09, 6.495973437218140E+09, -4.145204788560629E+07,
2460385.500000000, A.D. 2024-Mar-16 00:00:00.0000, 4.378874417154766E+09, 6.497011200510499E+09, -4.130947657326746E+07,
2460392.500000000, A.D. 2024-Mar-23 00:00:00.0000, 4.376772573504984E+09, 6.498048248130280E+09, -4.116689915478754E+07,
2460399.500000000, A.D. 2024-Mar-30 00:00:00.0000, 4.374670231275029E+09, 6.499084578949005E+09, -4.102431581430674E+07,
2460406.500000000, A.D. 2024-Apr-06 00:00:00.0000, 4.372567391363415E+09, 6.500120193169510E+09, -4.088172651682138E+07,
2460413.500000000, A.D. 2024-Apr-13 00:00:00.0000, 4.370464053520771E+09, 6.501155090629665E+09, -4.073913113463259E+07,
2460420.500000000, A.D. 2024-Apr-20 00:00:00.0000, 4.368360217271088E+09, 6.502189270368768E+09, -4.059652956892252E+07,
2460427.500000000, A.D. 2024-Apr-27 00:00:00.0000, 4.366255882379363E+09, 6.503222730895257E+09, -4.045392177312851E+07,
2460434.500000000, A.D. 2024-May-04 00:00:00.0000, 4.364151048953604E+09, 6.504255470452468E+09, -4.031130774363899E+07,
2460441.500000000, A.D. 2024-May-11 00:00:00.0000, 4.362045717419512E+09, 6.505287487180752E+09, -4.016868750784397E+07,
2460448.500000000, A.D. 2024-May-18 00:00:00.0000, 4.359939888449832E+09, 6.506318779197901E+09, -4.002606111519718E+07,
2460455.500000000, A.D. 2024-May-25 00:00:00.0000, 4.357833562873104E+09, 6.507349344591051E+09, -3.988342863391924E+07,
2460462.500000000, A.D. 2024-Jun-01 00:00:00.0000, 4.355726741621626E+09, 6.508379181262974E+09, -3.974079016334915E+07,
2460469.500000000, A.D. 2024-Jun-08 00:00:00.0000, 4.353619425965043E+09, 6.509408286610091E+09, -3.959814588613224E+07,
2460476.500000000, A.D. 2024-Jun-15 00:00:00.0000, 4.351511618429028E+09, 6.510436657577607E+09, -3.945549615210152E+07,
2460483.500000000, A.D. 2024-Jun-22 00:00:00.0000, 4.349403323393884E+09, 6.511464292267101E+09, -3.931284140533876E+07,
2460490.500000000, A.D. 2024-Jun-29 00:00:00.0000, 4.347294545251402E+09, 6.512491191276009E+09, -3.917018190836143E+07,
2460497.500000000, A.D. 2024-Jul-06 00:00:00.0000, 4.345185286764995E+09, 6.513517356297987E+09, -3.902751770775890E+07,
2460504.500000000, A.D. 2024-Jul-13 00:00:00.0000, 4.343075549582356E+09, 6.514542788808376E+09, -3.888484878912354E+07,
2460511.500000000, A.D. 2024-Jul-20 00:00:00.0000, 4.340965334915001E+09, 6.515567489983504E+09, -3.874217514518118E+07,
2460518.500000000, A.D. 2024-Jul-27 00:00:00.0000, 4.338854643728658E+09, 6.516591460894408E+09, -3.859949677534914E+07,
2460525.500000000, A.D. 2024-Aug-03 00:00:00.0000, 4.336743476717494E+09, 6.517614702600129E+09, -3.845681367246485E+07,
2460532.500000000, A.D. 2024-Aug-10 00:00:00.0000, 4.334631834227900E+09, 6.518637216136313E+09, -3.831412581240368E+07,
2460539.500000000, A.D. 2024-Aug-17 00:00:00.0000, 4.332519716179198E+09, 6.519659002421134E+09, -3.817143314933491E+07,
2460546.500000000, A.D. 2024-Aug-24 00:00:00.0000, 4.330407122009094E+09, 6.520680062056642E+09, -3.802873562123680E+07,
2460553.500000000, A.D. 2024-Aug-31 00:00:00.0000, 4.328294050759493E+09, 6.521700394964427E+09, -3.788603318154430E+07,
2460560.500000000, A.D. 2024-Sep-07 00:00:00.0000, 4.326180501668183E+09, 6.522719999982315E+09, -3.774332588040447E+07,
2460567.500000000, A.D. 2024-Sep-14 00:00:00.0000, 4.324066475351639E+09, 6.523738875418295E+09, -3.760061392221069E+07,
2460574.500000000, A.D. 2024-Sep-21 00:00:00.0000, 4.321951973550097E+09, 6.524757020974450E+09, -3.745789747981691E+07,
2460581.500000000, A.D. 2024-Sep-28 00:00:00.0000, 4.319836996947426E+09, 6.525774437813474E+09, -3.731517648470116E+07,
2460588.500000000, A.D. 2024-Oct-05 00:00:00.0000, 4.317721544735488E+09, 6.526791126769526E+09, -3.717245072964525E+07,
2460595.500000000, A.D. 2024-Oct-12 00:00:00.0000, 4.315605615562366E+09, 6.527807087683701E+09, -3.702972000741053E+07,
2460602.500000000, A.D. 2024-Oct-19 00:00:00.0000, 4.313489208113526E+09, 6.528822319593419E+09, -3.688698414702606E+07,
2460609.500000000, A.D. 2024-Oct-26 00:00:00.0000, 4.311372321293616E+09, 6.529836820974520E+09, -3.674424301019764E+07,
2460616.500000000, A.D. 2024-Nov-02 00:00:00.0000, 4.309254954266269E+09, 6.530850589887946E+09, -3.660149648357630E+07,
2460623.500000000, A.D. 2024-Nov-09 00:00:00.0000, 4.307137106448710E+09, 6.531863624051967E+09, -3.645874447402811E+07,
2460630.500000000, A.D. 2024-Nov-16 00:00:00.0000, 4.305018777487196E+09, 6.532875920840504E+09, -3.631598690919590E+07,
2460637.500000000, A.D. 2024-Nov-23 00:00:00.0000, 4.302899967260350E+09, 6.533887477157964E+09, -3.617322375169277E+07,
2460644.500000000, A.D. 2024-Nov-30 00:00:00.0000, 4.300780676118858E+09, 6.534898289148164E+09, -3.603045504941177E+07,
2460651.500000000, A.D. 2024-Dec-07 00:00:00.0000, 4.298660905781055E+09, 6.535908352158200E+09, -3.588768102597046E+07,
2460658.500000000, A.D. 2024-Dec-14 00:00:00.0000, 4.296540660195852E+09, 6.536917662181424E+09, -3.574490204796648E+07,
2460665.500000000, A.D. 2024-Dec-21 00:00:00.0000, 4.294419944054556E+09, 6.537926217538867E+09, -3.560211835762835E+07,
2460672.500000000, A.D. 2024-Dec-28 00:00:00.0000, 4.292298760924061E+09, 6.538934017831912E+09, -3.545932999412537E+07,
2460679.500000000, A.D. 2025-Jan-04 00:00:00.0000, 4.290177113598732E+09, 6.539941062542406E+09, -3.531653694732714E+07,
2460686.500000000, A.D. 2025-Jan-11 00:00:00.0000, 4.288055004849790E+09, 6.540947350940118E+09, -3.517373924112892E+07,
2460693.500000000, A.D. 2025-Jan-18 00:00:00.0000, 4.285932437655398E+09, 6.541952882378797E+09, -3.503093693704128E+07,
2460700.500000000, A.D. 2025-Jan-25 00:00:00.0000, 4.283809415155064E+09, 6.542957656506229E+09, -3.488813011891890E+07,
2460707.500000000, A.D. 2025-Feb-01 00:00:00.0000, 4.281685940517983E+09, 6.543961673358247E+09, -3.474531887839270E+07,
2460714.500000000, A.D. 2025-Feb-08 00:00:00.0000, 4.279562016783873E+09, 6.544964933356277E+09, -3.460250330451870E+07,
2460721.500000000, A.D. 2025-Feb-15 00:00:00.0000, 4.277437646705174E+09, 6.545967437188458E+09, -3.445968348172045E+07,
$$EOE